"Fcilty_typ","State","Fcilty_nam","Shp_num_an","Shp_centre","Street_add","Locality","Postcode","Hrs_of_bus","Wheelchair","Display_wd","Fcilty_typ_2","Xcoord","Ycoord","uuid","result","Audio"
,ACT,Dan Murphy's Stores,,Westfield Shopping Centre,"193 Benjamin Way, Shop 6, Level 2",Belconnen,2617,"9:00AM-9:00PM Monday-Sat, 10:00AM-7:00PM Sun  ",,,,149.067331,-35.245806,,,
,ACT,Dan Murphy's Stores,,Phillip Market Place Shops,Cnr Hindmarsh Drive & Botany St,Phillip,2606,"9:00AM-9:00PM Monday-Sat, 10:00AM-7:00PM Sun  ",,,,149.088407,-35.348856,,,
,ACT,Dan Murphy's Stores,Shop 34-36,Homeworld Centre,"150-180 Soward Way, Tuggeranong Town Centre",Greenway,2900,"9:00AM-9:00PM Monday-Sat, 10:00AM-7:00PM Sun  ",,,,149.067828,-35.41801,,,
,NSW,Dan Murphy's Stores,,,428-432 Dean Street,Albury,2640,"9:00AM-9:00PM Monday-Sat, 10:00AM-7:00PM Sun  ",,,,146.92279,-36.081514,,,
,NSW,Dan Murphy's Stores,,,2/10 Fountain Street,Alexandria,2015,"9:00AM-8:00PM Monday-Wed, 9:00AM-9:00PM Thur-Sat, 10:00AM-7:00PM Sun  ",,,,151.194928,-33.902629,,,
,NSW,Dan Murphy's Stores,,,218 Beardy St,Armidale,2350,"9:00AM-9:00PM Monday-Sat, 10:00AM-7:00PM Sun  ",,,,151.663811,-30.513115,,,
,NSW,Dan Murphy's Stores,,,Cnr Kalinga St & Riverview Ave,Ballina,2478,"9:00AM-8:00PM Monday-Wed, 9:00AM-9:00PM Thur-Sat, 10:00AM-7:00PM Sun  ",,,,153.535268,-28.864653,,,
,NSW,Dan Murphy's Stores,,,Cnr Rickard Rd & Stacey St,Bankstown,2200,"9:00AM-8:00PM Monday-Wed, 9:00AM-9:00PM Thur-Fri, 9:00AM-8:00PM Sat, 10:00AM-6:00PM Sun  ",,,,151.041809,-33.914572,,,
,NSW,Dan Murphy's Stores,,,57 George St,Bathurst,2795,"9:00AM-9:00PM Monday-Sat, 10:00AM-7:00PM Sun  ",,,,149.581871,-33.414482,,,
,NSW,Dan Murphy's Stores,Shop MM03,,106 Auckland St,Bega,2550,"9:00AM-9:00PM Monday-Sat, 10:00AM-7:00PM Sun  ",,,,149.840988,-36.674808,,,
,NSW,Dan Murphy's Stores,,,Cnr Blacktown Rd & Lacey Place,Blacktown,2148,"9:00AM-9:00PM Monday-Sat, 10:00AM-7:00PM Sun  ",,,,150.920169,-33.777107,,,
,NSW,Dan Murphy's Stores,,,312 Parramatta Road,Burwood,2134,"9:00AM-8:00PM Monday-Wed, 9:00AM-9:00PM Thur-Sat, 10:00AM-7:00PM Sun  ",,,,151.107556,-33.869793,,,
,NSW,Dan Murphy's Stores,,,343 Port Hacking Road,Caringbah,2229,"9:00AM-9:00PM Monday-Sat, 10:00AM-7:00PM Sun  ",,,,151.123532,-34.043461,,,
,NSW,Dan Murphy's Stores,,Marketplace Shopping Centre,"Cnr Cowpasture & Kurrajong Rd, Hoxton Park",Carnes Hill,2171,"9:00AM-9:00PM Monday-Sat, 10:00AM-7:00PM Sun  ",,,,150.843551,-33.935708,,,
,NSW,Dan Murphy's Stores,,,250 Old Northern Road,Castle Hill,2154,"9:00AM-9:00PM Monday-Sat, 10:00AM-7:00PM Sun  ",,,,151.00323,-33.734578,,,
,NSW,Dan Murphy's Stores,,,,Castle Towers,(error on page),,,,,,,,,
,NSW,Dan Murphy's Stores,,,580 Hume Highway,Casula,2170,"9:00AM-9:00PM Monday-Sat, 10:00AM-7:00PM Sun  ",,,,150.904067,-33.951437,,,
,NSW,Dan Murphy's Stores,,,30 Pearson St,Charlestown,2290,"9:00AM-9:00PM Monday-Sat, 10:00AM-7:00PM Sun  ",,,,151.693939,-32.963619,,,
,NSW,Dan Murphy's Stores,,,100-102 Grafton St,Coffs Harbour,2450,"9:00AM-8:00PM Monday-Wed, 9:00AM-9:00PM Thur-Fri, 9:00AM-8:00PM Sat, 10:00AM-6:00PM Sun  ",,,,153.115194,-30.294484,,,
,NSW,Dan Murphy's Stores,,,Cnr Hewitt St & Great Western Highway,Colyton,2760,"9:00AM-9:00PM Monday-Sat, 10:00AM-7:00PM Sun  ",,,,150.802662,-33.776735,,,
,NSW,Dan Murphy's Stores,,,270 Princes Highway,Corrimal,2518,"9:00AM-9:00PM Monday-Sat, 10:00AM-7:00PM Sun  ",,,,150.897632,-34.374104,,,
,NSW,Dan Murphy's Stores,,,1 Kiaora Rd,Double Bay,2028,"9:00AM-9:00PM Monday-Sat, 10:00AM-7:00PM Sun  ",,,,151.24449,-33.877803,,,
,NSW,Dan Murphy's Stores,,,Cnr Windsor Parade & Birch Ave,Dubbo,2830,"9:00AM-9:00PM Monday-Sat, 10:00AM-7:00PM Sun  ",,,,148.643446,-32.254033,,,
,NSW,Dan Murphy's Stores,,Stockland Green Hills ,14 Mitchell Dr,East Maitland,2323,"9:00AM-9:00PM Monday-Sat, 10:00AM-7:00PM Sun  ",,,,151.591689,-32.762986,,,
,NSW,Dan Murphy's Stores,,,7-9 East Market St,Richmond,2753,"9:00AM-9:00PM Monday-Sat, 10:00AM-6:00PM Sun  ",,,,-122.370171,37.958711,,,
,NSW,Dan Murphy's Stores,,,1-7 Rowe St (Cnr Blaxland Rd),Eastwood,2122,"9:00AM-9:00PM Monday-Sat, 10:00AM-7:00PM Sun  ",,,,151.086325,-33.790463,,,
,NSW,Dan Murphy's Stores,,,14 Water St ,Emu Plains,2750,"9:00AM-9:00PM Monday-Sat, 10:00AM-7:00PM Sun  ",,,,150.656662,-33.753101,,,
,NSW,Dan Murphy's Stores,Shop 13,Fountain Plaza,148 The Entrance Rd,Erina,2250,"9:00AM-9:00PM Monday-Sat, 10:00AM-7:00PM Sun  ",,,,151.379598,-33.438672,,,
,NSW,Dan Murphy's Stores,,,330 Victoria Rd,Gladesville,2111,"9:00AM-9:00PM Monday-Sat, 10:00AM-7:00PM Sun  ",,,,151.125867,-33.826472,,,
,NSW,Dan Murphy's Stores,,Grafton Shopping World,42 Duke St ,Grafton,2460,"9:00AM-8:00PM Monday-Wed, 9:00AM-9:00PM Thur-Fri, 9:00AM-8:00PM Sat, 10:00AM-7:00PM Sun  ",,,,152.936707,-29.689911,,,
,NSW,Dan Murphy's Stores,Shop 1005,Westfield Shopping Centre,Cnr Florence & Hunter Sts,Hornsby,2077,"9:00AM-9:00PM Monday-Sat, 10:00AM-7:00PM Sun  ",,,,151.099736,-33.703888,,,
,NSW,Dan Murphy's Stores,Shop 6MA,Westfield Shopping Centre,Cnr Cross St & The Avenue,Hurstville,2220,"9:00AM-9:00PM Monday-Sat, 10:00AM-7:00PM Sun  ",,,,151.105696,-33.964671,,,
,NSW,Dan Murphy's Stores,,,136 Bathurst Rd,Katoomba,2780,"9:00AM-8:00PM Monday-Wed, 9:00AM-9:00PM Thur-Fri, 9:00AM-8:00PM Sat, 10:00AM-6:00PM Sun  ",,,,150.30995,-33.711449,,,
,NSW,Dan Murphy's Stores,,,493-501 Anzac Parade (Cnr Irvine St),Kingsford,2032,"9:00AM-8:00PM Monday-Sat, 10:00AM-7:00PM Sun  ",,,,151.234217,-33.929014,,,
,NSW,Dan Murphy's Stores,,Kotara Homemaker Centre,108 Park Avenue,Kotara,2289,"9:00AM-9:00PM Monday-Sat, 10:00AM-7:00PM Sun  ",,,,151.708849,-32.940645,,,
,NSW,Dan Murphy's Stores,,,68 Ballina Road,Lismore,2480,"9:00AM-8:00PM Monday-Tue, 10:00AM-8:00PM Wed, 9:00AM-9:00PM Thur-Sat, 10:00AM-7:00PM Sun  ",,,,153.283427,-28.814452,,,
,NSW,Dan Murphy's Stores,Lev1 C048-C049,Macarthur Square Shopping Centre,Cnr Kellicar Rd & Bolger St,Ambarvale,2560,"9:00AM-9:00PM Monday-Sat, 10:00AM-7:00PM Sun  ",,,,150.799,-34.07388,,,
,NSW,Dan Murphy's Stores,,,279-283 Condamine St,Manly Vale,2093,"9:00AM-9:00PM Monday-Sat, 10:00AM-7:00PM Sun  ",,,,151.266457,-33.785771,,,
,NSW,Dan Murphy's Stores,,Menai Central Building C,Cnr Old Illawara & Menai Rds,Menai,2234,"9:00AM-9:00PM Monday-Sat, 10:00AM-7:00PM Sun  ",,,,151.0113,-34.014608,,,
,NSW,Dan Murphy's Stores,,,Cnr Bowral Rd & Pioneer St,Mittagong,2575,"9:00AM-9:00PM Monday-Sat, 10:00AM-7:00PM Sun  ",,,,150.44487,-34.451741,,,
,NSW,Dan Murphy's Stores,,,25-29 Park St,Mona Vale,2103,"9:00AM-9:00PM Mon-Sat, 10:00AM-7:00PM Sun  ",,,,151.296392,-33.723635,,,
,NSW,Dan Murphy's Stores,,,23 Steel St,Newcastle West,2302,"9:00AM-8:00PM Mon-Wed, 9:00AM-9:00PM Thur-Fri, 9:00AM-8:00PM Sat, 10:00AM-6:00PM Sun  ",,,,151.763791,-32.929245,,,
,NSW,Dan Murphy's Stores,,,86 Summer St,Orange,2800,"9:00AM-9:00PM Mon-Sat, 10:00AM-7:00PM Sun  ",,,,-74.234805,40.77785,,,
,NSW,Dan Murphy's Stores,,,Cnr Maxwell St & The Northern Road,Penrith,2750,"9:00AM-9:00PM Mon-Sat, 10:00AM-7:00PM Sun  ",,,,150.711977,-33.775673,,,
,NSW,Dan Murphy's Stores,,,Cnr Gordon & Horton Sts,Port Macquarie,2444,"9:00AM-9:00PM Mon-Sat, 10:00AM-7:00PM Sun  ",,,,152.908342,-31.431263,,,
,NSW,Dan Murphy's Stores,,,30 Port Stephens St,Raymond Terrace,2324,"9:00AM-8:00PM Mon-Wed, 9:00AM-9:00PM Thur-Fri, 9:00AM-8:00PM Sat, 10:00AM-6:00PM Sun  ",,,,151.744607,-32.759703,,,
,NSW,Dan Murphy's Stores,,,15 Merriville Road,Kellyville Ridge,2155,"9:00AM-9:00PM Mon-Sat, 10:00AM-7:00PM Sun  ",,,,150.92762,-33.700446,,,
,NSW,Dan Murphy's Stores,Shop 8,Shellharbour Stockland Retail Park,New Lake Entrance Rd,Shellharbour,2529,"9:00AM-9:00PM Mon-Sat, 10:00AM-7:00PM Sun  ",,,,150.826902,-34.565687,,,
,NSW,Dan Murphy's Stores,,,53 Minjungbal Dr,South Tweed,2385,"9:00AM-8:00PM Mon-Tue, 10:00AM-8:00PM Wed, 9:00AM-9:00PM Thur-Sat, 10:00AM-7:00PM Sun  ",,,,153.540894,-28.192602,,,
,NSW,Dan Murphy's Stores,,,350-360 Liverpool Rd,Strathfield,2136,"9:00AM-8:00PM Mon-Wed, 9:00AM-9:00PM Thur-Sat, 10:00AM-7:00PM Sun  ",,,,151.119209,-33.888821,,,
,NSW,Dan Murphy's Stores,,,152 Pacific Highway,Swansea,2281,"9:00AM-9:00PM Mon-Sat, 10:00AM-7:00PM Sun  ",,,,151.638021,-33.088849,,,
,NSW,Dan Murphy's Stores,,Parkway Plaza Shopping Centre,2-12 The Comenarra Parkway & Bellevue St,Thornleigh,2120,"9:00AM-9:00PM Mon-Sat, 10:00AM-7:00PM Sun  ",,,,151.08215,-33.732207,,,
,NSW,Dan Murphy's Stores,,,Crn Devlin St & Blaxland Rd,Top Ryde,2112,"8:00AM-9:00PM Mon-Sat, 10:00AM-7:00PM Sun  ",,,,-1.163282,50.729952,,,
,NSW,Dan Murphy's Stores,Shop M8,Westfield Shopping Centre,50 Wyong Rd,Tuggerah,2259,"9:00AM-9:00PM Mon-Sat, 10:00AM-7:00PM Sun  ",,,,151.412276,-33.30755,,,
,NSW,Dan Murphy's Stores,,,2 Flinders St,Wagga Wagga,2650,"9:00AM-9:00PM Mon-Sat, 10:00AM-7:00PM Sun  ",,,,147.369547,-35.119482,,,
,NSW,Dan Murphy's Stores,,,18 Orange Grove (Cumberland Hiway),Warwick Farm,2170,"9:00AM-9:00PM Mon-Sat, 10:00AM-7:00PM Sun  ",,,,150.968694,-33.815455,,,
,NSW,Dan Murphy's Stores,,,Cnr Great Western Highway & Florence St,Wentworthville,2145,"9:00AM-9:00PM Mon-Sat, 10:00AM-7:00PM Sun  ",,,,150.968694,-33.815455,,,
,NSW,Dan Murphy's Stores,,,67 Central Coast Highway,West Gosford,2250,"9:00AM-9:00PM Mon-Sat, 10:00AM-7:00PM Sun  ",,,,151.322268,-33.427743,,,
,NSW,Dan Murphy's Stores,,,71-77 Penshurst St,Willoughby,2068,"9:00AM-9:00PM Mon-Sat, 10:00AM-7:00PM Sun  ",,,,151.19902,-33.801096,,,
,NSW,Dan Murphy's Stores,,,Princess Hwy & Brodie Spark Dr,Wolli Creek,2205,"9:00AM-9:00PM Mon-Sat, 10:00AM-7:00PM Sun  ",,,,151.1552,-33.930869,,,
,QLD,Dan Murphy's Stores,,,222 Ross River Rd,Aitkenvale,4814,"9:00AM-8:00PM Mon-Wed, 9:00AM-9:00PM Thur-Sat, 9:00AM-7:00PM Sun  ",,,,146.772919,-19.296842,,,
,QLD,Dan Murphy's Stores,,,"725-730 Albany Creek Road, Albany Creek Tavern ",Albany Creek,4035,"9:00AM-8:00PM Mon-Wed, 9:00AM-9:00PM Thur-Sat, 9:00AM-7:00PM Sun  ",,,,152.966425,-27.345944,,,
,QLD,Dan Murphy's Stores,,,8 Upper Dawson Rd,Allenstown,4700,"10:00AM-8:00PM Mon-Wed, 10:00AM-9:00PM Thur-Sat, 10:00AM-7:00PM Sun  ",,,,150.50229,-23.389296,,,
,QLD,Dan Murphy's Stores,,,"95-97 George Street, Sundowner Hotel ",Beenleigh,4207,"10:00AM-8:00PM Mon-Tue, 9:00AM-8:00PM Wed, 10:00AM-9:00PM Thur-Sat, 10:00AM-7:00PM Sun  ",,,,,,,,
,QLD,Dan Murphy's Stores,,,Lot 716 Harbour Town Drive,Biggera Waters,4216,"10:00AM-8:00PM Mon-Tue, 9:00AM-8:00PM Wed, 10:00AM-9:00PM Thur-Sat, 10:00AM-7:00PM Sun  ",,,,153.386087,-27.932337,,,
,QLD,Dan Murphy's Stores,,,"1 Airport Drive, Village Market ",Brisbane Airport,4008,"10:00AM-8:00PM Mon-Wed, 10:00AM-9:00PM Thur-Sat, 10:00AM-7:00PM Sun  ",,,,153.033163,-27.425496,,,
,QLD,Dan Murphy's Stores,,,72 Targo Street,Bundaberg,4670,"9:00AM-8:00PM Mon-Wed, 9:00AM-9:00PM Thur-Sat, 9:00AM-7:00PM Sun  ",,,,152.353891,-24.871853,,,
,QLD,Dan Murphy's Stores,,Varsity Lakes Tavern ,"Cnr Bermuda Street & Santa Maria Court,",Burleigh Waters,4220,"9:00AM-8:00PM Mon-Wed, 9:00AM-9:00PM Thur-Sat, 9:00AM-7:00PM Sun  ",,,,153.422069,-28.075474,,,
,QLD,Dan Murphy's Stores,,Westfield Chermside Shopping Centre ,395 Hamilton Road,Chermside,4032,"9:00AM-8:00PM Mon-Wed, 9:00AM-9:00PM Thur-Sat, 9:00AM-7:00PM Sun  ",,,,153.032843,-27.38371,,,
,QLD,Dan Murphy's Stores,,,Cnr City centre drive & Commercial street ,West Coomer,4209,"10:00AM-8:00PM Mon-Tue, 9:00AM-8:00PM Wed, 10:00AM-9:00PM Thur-Sat, 10:00AM-7:00PM Sun  ",,,,153.301786,-27.850176,,,
,QLD,Dan Murphy's Stores,,,310 Bayswater Rd,Garbutt,4814,"9:00AM-8:00PM Mon-Wed, 9:00AM-9:00PM Thur-Sat, 9:00AM-7:00PM Sun  ",,,,146.766124,-19.275124,,,
,QLD,Dan Murphy's Stores,,,Cnr Bay Ave and Deception Bay Road ,Deception Bay,4508,"9:00AM-8:00PM Mon-Wed, 9:00AM-9:00PM Thur-Sat, 9:00AM-7:00PM Sun  ",,,,153.029651,-27.196698,,,
,QLD,Dan Murphy's Stores,,,423-439 Mulgrave Rd,Earlville,4870,"9:00AM-8:00PM Mon-Wed, 9:00AM-9:00PM Thur-Sat, 9:00AM-7:00PM Sun  ",,,,145.742997,-16.94015,,,
,QLD,Dan Murphy's Stores,,,2 Harvey Rd Clinton,Gladstone,4680,"10:00AM-8:00PM Mon-Wed, 10:00AM-9:00PM Thur-Sat, 10:00AM-7:00PM Sun  ",,,,151.221679,-23.880123,,,
,QLD,Dan Murphy's Stores,,,Cnr Kingsford Smith Drive & Racecourse Rd,Hamilton,4007,"10:00AM-8:00PM Mon-Wed, 10:00AM-9:00PM Thur-Sat, 10:00AM-7:00PM Sun  ",,,,153.064312,-27.439342,,,
,QLD,Dan Murphy's Stores,,Bay Central Tavern ,155 Boat Harbour Drive Urraween,Hervey Bay,4655,"9:00AM-8:00PM Mon-Wed, 9:00AM-9:00PM Thur-Sat, 9:00AM-7:00PM Sun  ",,,,152.835125,-25.28831,,,
,QLD,Dan Murphy's Stores,,,935 Logan Road ,Holland Park,4121,"9:00AM-8:00PM Mon-Wed, 9:00AM-9:00PM Thur-Sat, 9:00AM-7:00PM Sun  ",,,,153.060484,-27.519183,,,
,QLD,Dan Murphy's Stores,,,215 Brisbane Rd Booval,Ipswich,4304,"9:00AM-8:00PM Mon-Wed, 9:00AM-9:00PM Thur-Sat, 9:00AM-7:00PM Sun  ",,,,152.800648,-27.613874,,,
,QLD,Dan Murphy's Stores,,Kawana Waters Hotel ,"136 Point Cartwright Drive, Buddina",Kawana,4575,"9:00AM-8:00PM Mon-Wed, 9:00AM-9:00PM Thur-Sat, 9:00AM-7:00PM Sun  ",,,,153.131555,-26.703405,,,
,QLD,Dan Murphy's Stores,,Peninsular Fair Shopping Centre ,272 Anzac Ave,Kippa-ring,4021,"10:00AM-8:00PM Mon-Wed, 10:00AM-9:00PM Thur-Sat, 10:00AM-7:00PM Sun  ",,,,153.089041,-27.226989,,,
,QLD,Dan Murphy's Stores,,,154 Thuringowa Dr,Kirwan,4817,"9:00AM-8:00PM Mon-Wed, 9:00AM-9:00PM Thur-Sat, 9:00AM-7:00PM Sun  ",,,,146.733332,-19.302711,,,
,QLD,Dan Murphy's Stores,,Austral Hotel ,189 Victoria St,Mackay,4740,"9:00AM-8:00PM Mon-Wed, 9:00AM-9:00PM Thur-Sat, 9:00AM-7:00PM Sun  ",,,,149.179816,-21.140468,,,
,QLD,Dan Murphy's Stores,Shop 1039,Westfield Shopping Centre,1 North Lakes Drive,Mango Hills,4509,"9:00AM-8:00PM Mon-Wed, 9:00AM-9:00PM Thur-Sat, 9:00AM-7:00PM Sun  ",,,,153.017794,-27.241978,,,
,QLD,Dan Murphy's Stores,,,34 Elena St,Maryborough,4650,"9:00AM-8:00PM Mon-Wed, 9:00AM-9:00PM Thur-Sat, 9:00AM-7:00PM Sun  ",,,,152.702978,-25.541145,,,
,QLD,Dan Murphy's Stores,,Lonestar Tavern,Cnr Markeri St & Sunshine Blvd,Mermaid Waters,4218,"9:00AM-8:00PM Mon-Wed, 9:00AM-9:00PM Thur-Sat, 9:00AM-7:00PM Sun  ",,,,153.427227,-28.048059,,,
,QLD,Dan Murphy's Stores,,The Centenary Tavern,"96 Summers Rd, Sumner",Middle Park,4074,"9:00AM-8:00PM Mon-Wed, 9:00AM-9:00PM Thur-Sat, 9:00AM-7:00PM Sun  ",,,,152.931296,-27.562748,,,
,QLD,Dan Murphy's Stores,,,"Malcomson Street, (near Mt Pleasant Tavern), N Mackay",Mount Pleasant,4740,"10:00AM-8:00PM Mon-Wed, 10:00AM-9:00PM Thur-Sat, 10:00AM-7:00PM Sun  ",,,,-79.828426,32.832322,,,
,QLD,Dan Murphy's Stores,,The Hinterland Hotel ,53 Station Street,Nerang,4211,"9:00AM-8:00PM Mon-Wed, 9:00AM-9:00PM Thur-Sat, 9:00AM-7:00PM Sun  ",,,,153.339405,-27.996044,,,
,QLD,Dan Murphy's Stores,,The Villanoosa Hotel,15-21 Mary St,Noosaville,4566,"9:00AM-8:00PM Mon-Wed, 9:00AM-9:00PM Thur-Sat, 9:00AM-7:00PM Sun  ",,,,153.063871,-26.401009,,,
,QLD,Dan Murphy's Stores,,,179-193 Old Pacific Highway ,Oxenford,4210,"10:00AM-8:00PM Mon-Wed, 10:00AM-9:00PM Thur-Sat, 10:00AM-7:00PM Sun  ",,,,153.31471,-27.883316,,,
,QLD,Dan Murphy's Stores,,Parkwood Tavern ,3 Wintergreen Drive,Parkwood,4214,"9:00AM-8:00PM Mon-Wed, 9:00AM-9:00PM Thur-Sat, 9:00AM-7:00PM Sun  ",,,,153.378774,-27.958612,,,
,QLD,Dan Murphy's Stores,,,339 Redbank Plains,Redbank Plains,4031,"9:00AM-8:00PM Mon-Wed, 9:00AM-9:00PM Thur-Sat, 9:00AM-7:00PM Sun  ",,,,152.870982,-27.643916,,,
,QLD,Dan Murphy's Stores,,,2-6 Scottsdale Drive ,Robina,4226,"10:00AM-8:00PM Mon-Wed, 10:00AM-9:00PM Thur-Sat, 10:00AM-7:00PM Sun  ",,,,153.392125,-28.082686,,,
,QLD,Dan Murphy's Stores,,Smithfield Shopping Centre ,Cnr Captain Cook & Kennedy Highways,Smithfield,4878,"9:00AM-8:00PM Mon-Wed, 9:00AM-9:00PM Thur-Sat, 9:00AM-7:00PM Sun  ",,,,-78.339446,35.508494,,,
,QLD,Dan Murphy's Stores,,,43 Springwood Rd,Springwood,4127,"9:00AM-8:00PM Mon-Wed, 9:00AM-9:00PM Thur-Sat, 9:00AM-7:00PM Sun  ",,,,153.124085,-27.611687,,,
,QLD,Dan Murphy's Stores,,,260 Gympie Rd,Strathpine,4500,"10:00AM-8:00PM Mon-Wed, 10:00AM-9:00PM Thur-Sat, 10:00AM-7:00PM Sun  ",,,,152.989591,-27.307591,,,
,QLD,Dan Murphy's Stores,,,289 McCullough St,Sunnybank,4109,"9:00AM-8:00PM Mon-Wed, 9:00AM-9:00PM Thur-Sat, 9:00AM-7:00PM Sun  ",,,,153.062859,-27.572854,,,
,QLD,Dan Murphy's Stores,,,21 Glenquarie Place,The Gap,4061,"10:00AM-8:00PM Mon-Wed, 10:00AM-9:00PM Thur-Sat, 10:00AM-7:00PM Sun  ",,,,152.966136,-27.451653,,,
,QLD,Dan Murphy's Stores,,The Federal Hotel,111 James St,East Toowoomba,4350,"9:00AM-8:00PM Mon-Wed, 9:00AM-9:00PM Thur-Sat, 9:00AM-7:00PM Sun  ",,,,151.9609,-27.569889,,,
,QLD,Dan Murphy's Stores,Shop 1,Bldg 1 Victoria Point Town Centre,355-369 Colburn Ave,Victoria Point,4165,"9:00AM-8:00PM Mon-Wed, 9:00AM-9:00PM Thur-Sat, 9:00AM-7:00PM Sun  ",,,,153.283907,-27.587248,,,
,QLD,Dan Murphy's Stores,,,40 Richmond St,Wilsonton,4350,"10:00AM-8:00PM Mon-Wed, 10:00AM-9:00PM Thur-Sat, 10:00AM-7:00PM Sun  ",,,,151.924581,-27.542084,,,
,QLD,Dan Murphy's Stores,,Australian National Hotel,867 Stanley St,Woolloongabba,4102,"9:00AM-8:00PM Mon-Wed, 9:00AM-9:00PM Thur-Sat, 9:00AM-7:00PM Sun  ",,,,153.037378,-27.486767,,,
,QLD,Dan Murphy's Stores,,,1975 Wynnum Rd,Wynnum West,4178,"9:00AM-8:00PM Mon-Wed, 9:00AM-9:00PM Thur-Sat, 9:00AM-7:00PM Sun  ",,,,153.15375,-27.457802,,,
,QLD,Dan Murphy's Stores,,,"510 Warwick Rd, Ipswich",Yamanto,4305,"9:00AM-8:00PM Mon-Wed, 9:00AM-9:00PM Thur-Sat, 9:00AM-7:00PM Sun  ",,,,152.73883,-27.662018,,,
,SA,Dan Murphy's Stores,,,537 Portrush Road,Glenunga,5064,"9:00AM-9:00PM Mon-Sat, 10:00AM-7:00PM Sun  ",,,,138.643048,-34.948872,,,
,SA,Dan Murphy's Stores,,,Crn Grove Way & Golden Way,Golden Grove,5125,"9:00AM-9:00PM Mon-Sat, 10:00AM-7:00PM Sun  ",,,,138.701239,-34.852334,,,
,SA,Dan Murphy's Stores,,,1017 Lower North East Rd,Highbury,5089,"9:00AM-9:00PM Mon-Sat, 10:00AM-7:00PM Sun  ",,,,138.701239,-34.852334,,,
,SA,Dan Murphy's Stores,,,9 Lower Portrush Rd,Marden,5070,"9:00AM-9:00PM Mon-Sat, 10:00AM-7:00PM Sun  ",,,,138.637754,-34.89532,,,
,SA,Dan Murphy's Stores,,Westfield Shopping Centre,461 Morphett Rd ,Marion,5046,"9:00AM-9:00PM Mon-Sat, 10:00AM-7:00PM Sun  ",,,,138.541031,-35.014413,,,
,SA,Dan Murphy's Stores,,,112 Commercial Street ,Mt. Gambier,5290,"9:00AM-9:00PM Mon-Sat, 10:00AM-7:00PM Sun  ",,,,140.787204,-37.830981,,,
,SA,Dan Murphy's Stores,,Munno Para Shopping Centre,"600 Main North Rd, Smithfield",Munno Para,5114,"9:00AM-9:00PM Mon-Sat, 10:00AM-7:00PM Sun  ",,,,138.688599,-34.687989,,,
,SA,Dan Murphy's Stores,,,Centro Colonnades,Noarlunga,5168,"9:00AM-9:00PM Mon-Sat, 10:00AM-7:00PM Sun  ",,,,138.496086,-35.142229,,,
,SA,Dan Murphy's Stores,,,97 The Parade,Norwood,5067,"9:00AM-9:00PM Mon-Sat, 10:00AM-7:00PM Sun  ",,,,138.632412,-34.920974,,,
,SA,Dan Murphy's Stores,,Pasadena Green Shopping Centre,16-30 Fiveash Drive ,Pasadena,5042,"9:00AM-9:00PM Mon-Sat, 10:00AM-7:00PM Sun  ",,,,138.59022,-35.001248,,,
,SA,Dan Murphy's Stores,,,87 Payneham Road ,St Peters ,5069,"9:00AM-9:00PM Mon-Sat, 10:00AM-7:00PM Sun  ",,,,138.625616,-34.911575,,,
,SA,Dan Murphy's Stores,,Welland Plaza ,532 Port Road,Welland,5007,"9:00AM-9:00PM Mon-Sat, 10:00AM-7:00PM Sun  ",,,,138.556575,-34.895684,,,
,VIC,Dan Murphy's Stores,,,789 Heidelberg Rd,Alphington,3078,"9:00AM-9:00PM Mon-Sat, 10:00AM-7:00PM Sun  ",,,,145.03323,-37.780349,,,
,VIC,Dan Murphy's Stores,,,291-325 Mount Alexander Road ,Ascot Vale,3032,"9:00AM-9:00PM Mon-Sat, 10:00AM-7:00PM Sun  ",,,,144.92888,-37.776953,,,
,VIC,Dan Murphy's Stores,,Ballrat Central,"61 Curtis Street, Ballarat Rangers Barracks",Ballarat,3350,"9:00AM-9:00PM Mon-Sat, 10:00AM-7:00PM Sun  ",,,,,,,,
,VIC,Dan Murphy's Stores,,,"27-41 Bellarine Highway, Newcomb",Bellarine,3219,"9:00AM-9:00PM Mon-Sat, 10:00AM-7:00PM Sun  ",,,,144.38873,-38.169001,,,
,VIC,Dan Murphy's Stores,,,Crn Mt Pleasant Rd & Heard St,Belmont,3216,"9:00AM-8:00PM Mon-Wed, 9:00AM-9:00PM Thur-Sat, 10:00AM-6:00PM Sun  ",,,,144.348118,-38.171307,,,
,VIC,Dan Murphy's Stores,,,21-35 Garsed Street ,Bendigo,3550,"9:00AM-9:00PM Mon-Sat, 10:00AM-7:00PM Sun  ",,,,144.281224,-36.764166,,,
,VIC,Dan Murphy's Stores,,,5 Wilson Street ,Berwick,3806,"9:00AM-9:00PM Mon-Sat, 10:00AM-7:00PM Sun  ",,,,-70.863588,43.26833,,,
,VIC,Dan Murphy's Stores,,,159 Boronia Rd,Boronia,3155,"9:00AM-9:00PM Mon-Sat, 10:00AM-7:00PM Sun  ",,,,145.282579,-37.861737,,,
,VIC,Dan Murphy's Stores,,,479 Nepean Highway ,Brighton,3187,"9:00AM-9:00PM Mon-Sat, 10:00AM-7:00PM Sun  ",,,,145.010983,-37.908107,,,
,VIC,Dan Murphy's Stores,,,1177 Pasco Vale Rd,Broadmeadows,3047,"9:00AM-9:00PM Mon-Sat, 10:00AM-7:00PM Sun  ",,,,144.922336,-37.677431,,,
,VIC,Dan Murphy's Stores,,,1 Thompsons Road,Bulleen,3105,"9:00AM-9:00PM Mon-Sat, 10:00AM-7:00PM Sun  ",,,,145.082054,-37.778919,,,
,VIC,Dan Murphy's Stores,,Polaris Shopping Centre,1056-1140 Plenty Road ,Bundoora,3083,"9:00AM-9:00PM Mon-Sat, 10:00AM-7:00PM Sun  ",,,,145.051775,-37.708076,,,
,VIC,Dan Murphy's Stores,,,"385-395 Burwood Highway, Vermont South",Burvale,3133,"9:00AM-9:00PM Mon-Sat, 10:00AM-7:00PM Sun  ",,,,145.170806,-37.853529,,,
,VIC,Dan Murphy's Stores,,,"171 Camberwell Road, HAWTHORN EAST",Camberwell,3123,"9:00AM-9:00PM Mon-Sat, 10:00AM-7:00PM Sun  ",,,,145.054857,-37.829718,,,
,VIC,Dan Murphy's Stores,,,639 Warrigal Rd ,Chadstone,3148,"9:00AM-9:00PM Mon-Sat, 10:00AM-7:00PM Sun  ",,,,145.091773,-37.874995,,,
,VIC,Dan Murphy's Stores,,,1-19 Wells Road ,Chelsea Heights,3196,"9:00AM-9:00PM Mon-Sat, 10:00AM-7:00PM Sun  ",,,,145.13333,-38.027998,,,
,VIC,Dan Murphy's Stores,,,1 Louisa Street ,Coburg,3058,"9:00AM-8:00PM Mon-Wed, 9:00AM-9:00PM Thur-Fri, 9:00AM-8:00PM Sat, 10:00AM-6:00PM Sun  ",,,,144.964121,-37.744131,,,
,VIC,Dan Murphy's Stores,,,216 - 230 Princes Highway ,Corio,3214,"9:00AM-9:00PM Mon-Sat, 10:00AM-7:00PM Sun  ",,,,144.364752,-38.080742,,,
,VIC,Dan Murphy's Stores,,Jackson Court Shopping Center,898 Doncaster Rd,Doncaster East,3109,"9:00AM-9:00PM Mon-Sat, 10:00AM-7:00PM Sun  ",,,,145.148729,-37.788007,,,
,VIC,Dan Murphy's Stores,,,26 Princes Highway,Doveton,3177,"9:00AM-9:00PM Mon-Sat, 10:00AM-7:00PM Sun  ",,,,145.234109,-38.000693,,,
,VIC,Dan Murphy's Stores,,,166-168 Annesley Street ,Echuca,3564,"9:00AM-9:00PM Mon-Sat, 10:00AM-7:00PM Sun  ",,,,144.7525,-36.128504,,,
,VIC,Dan Murphy's Stores,,,"6-20 Luck Street, Shop 2 ",Eltham,3095,"9:00AM-9:00PM Mon-Sat, 10:00AM-7:00PM Sun  ",,,,145.150344,-37.71298,,,
,VIC,Dan Murphy's Stores,,Endeavour Hills Shopping Centre ,Cnr Heatherton Road & Mathew Flinders Avenue,Endeavour Hill,3802,"9:00AM-9:00PM Mon-Sat, 10:00AM-7:00PM Sun  ",,,,,,,,
,VIC,Dan Murphy's Stores,,,571-583 High Street ,Epping,3076,"9:00AM-9:00PM Mon-Sat, 10:00AM-7:00PM Sun  ",,,,145.021072,-37.654662,,,
,VIC,Dan Murphy's Stores,,Essendon Fields Shopping Center,100 Bulla Rd,Essendon Fields,3041,"9:00AM-8:00PM Mon-Wed, 9:00AM-9:00PM Thur-Fri, 9:00AM-8:00PM Sat, 10:00AM-7:00PM Sun  ",,,,144.904022,-37.733488,,,
,VIC,Dan Murphy's Stores,,,1435 Sydney Road ,Fawkner,3060,"9:00AM-9:00PM Mon-Sat, 10:00AM-7:00PM Sun  ",,,,144.957011,-37.690513,,,
,VIC,Dan Murphy's Stores,Shop 5 ,Brentford Square,500 Canterbury Road,Forest Hill,3131,"9:00AM-9:00PM Mon-Sat, 10:00AM-7:00PM Sun  ",,,,145.184289,-37.83656,,,
,VIC,Dan Murphy's Stores,,,425 Nepean Highway ,Frankston,3199,"9:00AM-9:00PM Mon-Sat, 10:00AM-7:00PM Sun  ",,,,145.122657,-38.141676,,,
,VIC,Dan Murphy's Stores,,,155-157 Pakington Street ,Geelong ,3218,"9:00AM-9:00PM Mon-Sat, 10:00AM-7:00PM Sun  ",,,,144.347889,-38.141271,,,
,VIC,Dan Murphy's Stores,,,5-35 Kingsway,Glen Waverley,3150,"9:00AM-9:00PM Mon-Sat, 10:00AM-7:00PM Sun  ",,,,145.163893,-37.879109,,,
,VIC,Dan Murphy's Stores,,,150 Hogans Road,Hogans Corner,3029,"9:00AM-9:00PM Mon-Sat, 10:00AM-7:00PM Sun  ",,,,144.311084,-36.871019,,,
,VIC,Dan Murphy's Stores,,,332-334 Cranbourne road ,Karingal,3199,"9:00AM-8:00PM Mon-Wed, 9:00AM-9:00PM Thur-Fri, 9:00AM-8:00PM Sat, 10:00AM-6:00PM Sun  ",,,,145.166316,-38.154536,,,
,VIC,Dan Murphy's Stores,,,299 High Street ,Kew,3101,"9:00AM-9:00PM Mon-Sat, 10:00AM-7:00PM Sun  ",,,,145.035378,-37.804737,,,
,VIC,Dan Murphy's Stores,,,2 - 8 Edsall Street ,Malvern,3144,"9:00AM-9:00PM Mon-Sat, 10:00AM-7:00PM Sun  ",,,,145.02936,-37.861275,,,
,VIC,Dan Murphy's Stores,,,811 - 823 Dandenong Road ,Malvern East,3145,"9:00AM-9:00PM Mon-Sat, 10:00AM-7:00PM Sun  ",,,,145.03999,-37.874154,,,
,VIC,Dan Murphy's Stores,,,"941 Thompsons Road, Lyndhurst",Marriott Waters,3975,"9:00AM-8:00PM Mon-Fri, 9:00AM-7:00PM Sat, 10:00AM-6:00PM Sun  ",,,,145.249173,-38.078847,,,
,VIC,Dan Murphy's Stores,,"Level 1, Queen Victoria Building","Crn Lonsdale & Swanston Street, ",Melbourne Qv,3000,"9:00AM-9:00PM Mon-Sat, 10:00AM-7:00PM Sun  ",,,,144.96586,-37.810506,,,
,VIC,Dan Murphy's Stores,,,585 High street ,Melton,3337,"9:00AM-8:00PM Mon-Thu, 9:00AM-9:00PM Fri, 9:00AM-8:00PM Sat, 10:00AM-6:00PM Sun  ",,,,144.558786,-37.685041,,,
,VIC,Dan Murphy's Stores,,,809-825 Fifteenth Street ,Mildura,3500,"9:00AM-9:00PM Mon-Sat, 10:00AM-7:00PM Sun  ",,,,142.141267,-34.209168,,,
,VIC,Dan Murphy's Stores,,,Cnr Benton & Dunns Road ,Mornington East,3931,"9:00AM-9:00PM Mon-Sat, 10:00AM-8:00PM Sun  ",,,,-90.035976,35.091488,,,
,VIC,Dan Murphy's Stores,,,2277 Dandenong Road ,Mulgrave,3170,"9:00AM-9:00PM Mon-Sat, 10:00AM-7:00PM Sun  ",,,,145.154767,-37.930688,,,
,VIC,Dan Murphy's Stores,,,206 Warrigal Road ,Oakleigh South,3167,"9:00AM-8:00PM Mon-Fri, 9:00AM-8:00PM Sat, 10:00AM-7:00PM Sun  ",,,,145.085565,-37.910096,,,
,VIC,Dan Murphy's Stores,,,8 Portobello Road ,Pakenham,3810,"9:00AM-9:00PM Mon-Sat, 10:00AM-7:00PM Sun  ",,,,145.455653,-38.064336,,,
,VIC,Dan Murphy's Stores,,Parkdale Plaza ,"Unit 4, 363-383 Nepean Highway",Parkdale,3195,"9:00AM-9:00PM Mon-Sat, 10:00AM-7:00PM Sun  ",,,,145.084533,-37.997428,,,
,VIC,Dan Murphy's Stores,,,9 Murnong Street ,Point Cook,3030,"9:00AM-9:00PM Mon-Sat, 10:00AM-7:00PM Sun  ",,,,144.733848,-37.882625,,,
,VIC,Dan Murphy's Stores,,,273 - 281 Chapel Street ,Prahran,3181,"9:00AM-9:00PM Mon-Sat, 10:00AM-7:00PM Sun  ",,,,144.993052,-37.848668,,,
,VIC,Dan Murphy's Stores,,,147-153 Bell Street ,Preston,3072,"9:00AM-9:00PM Mon-Sat, 10:00AM-7:00PM Sun  ",,,,-94.303033,37.337257,,,
,VIC,Dan Murphy's Stores,,,567 Bridge Road ,Richmond,3121,"9:00AM-9:00PM Mon-Sat, 10:00AM-7:00PM Sun  ",,,,145.009603,-37.819355,,,
,VIC,Dan Murphy's Stores,,,Cnr Heatherdale & Canterbury Road ,Ringwood,3134,"9:00AM-9:00PM Mon-Sat, 10:00AM-7:00PM Sun  ",,,,145.213348,-37.832355,,,
,VIC,Dan Murphy's Stores,,,1200 Stud Road ,Rowville,3178,"9:00AM-9:00PM Mon-Sat, 10:00AM-7:00PM Sun  ",,,,145.232154,-37.92689,,,
,VIC,Dan Murphy's Stores,,,114 Cunninghame St,Sale,3850,"9:00AM-8:00PM Mon-Thu, 9:00AM-9:00PM Fri, 9:00AM-8:00PM Sat, 10:00AM-6:00PM Sun  ",,,,147.068677,-38.107563,,,
,VIC,Dan Murphy's Stores,,Seaford Hotel,362 Frankston Dandenong Road ,Seaford,3198,"9:00AM-8:00PM Mon-Wed, 9:00AM-9:00PM Thu-Fri, 9:00AM-8:00PM Sat, 10:00AM-6:00PM Sun  ",,,,145.155007,-38.113304,,,
,VIC,Dan Murphy's Stores,,,428-452 Wyndham Street ,Shepparton,3630,"9:00AM-9:00PM Mon-Sat, 10:00AM-7:00PM Sun  ",,,,145.398067,-36.384207,,,
,VIC,Dan Murphy's Stores,,,100 Market Street ,South Melbourne,3006,"9:00AM-9:00PM Mon-Sat, 10:00AM-7:00PM Sun  ",,,,144.957234,-37.830161,,,
,VIC,Dan Murphy's Stores,,,822 Plenty Road ,South Morang,3752,"9:00AM-9:00PM Mon-Sat, 10:00AM-7:00PM Sun  ",,,,145.089049,-37.650635,,,
,VIC,Dan Murphy's Stores,,,82 Mahoneys Road ,Thomastown,3074,"9:00AM-9:00PM Mon-Sat, 10:00AM-7:00PM Sun  ",,,,145.000656,-37.692384,,,
,VIC,Dan Murphy's Stores,,,60-64 Princess Street ,Traralgon,3844,"9:00AM-9:00PM Mon-Sat, 10:00AM-7:00PM Sun  ",,,,146.535555,-38.198344,,,
,VIC,Dan Murphy's Stores,,Gateway Shopping Centre ,21-23 Gateway Road,Warrnambool,3280,"9:00AM-9:00PM Mon-Sat, 10:00AM-7:00PM Sun  ",,,,142.520171,-38.37892,,,
,VIC,Dan Murphy's Stores,,Watergardens Shopping Centre ,399 Melton Highway,Watergardens,3038,"9:00AM-9:00PM Mon-Sat, 10:00AM-7:00PM Sun  ",,,,144.773919,-37.696223,,,
,VIC,Dan Murphy's Stores,,,12 Korumburra road ,Wonthaggi,3995,"9:00AM-9:00PM Mon-Sat, 10:00AM-7:00PM Sun  ",,,,145.589443,-38.602885,,,
,WA,Dan Murphy's Stores,,,9 York Street ,Albany,6330,"9:00AM-9:00PM Mon-Sat, Closed by Sun  ",,,,117.883955,-35.027348,,,
,WA,Dan Murphy's Stores,,Fieldgate Shopping Centre ,Cnr Culloton Crescent & Wanneroo Road,Balga,6061,"9:00AM-9:00PM Mon-Sat, 10:00AM-7:00PM Sun  ",,,,115.823867,-31.848878,,,
,WA,Dan Murphy's Stores,,,52-54 Benningfield Road ,Bull Creek,6149,"9:00AM-9:00PM Mon-Sat, 10:00AM-7:00PM Sun  ",,,,115.858072,-32.064811,,,
,WA,Dan Murphy's Stores,,,113 Spencer Street ,South Bunbury,6230,"9:00AM-9:00PM Mon-Sat, 10:00AM-7:00PM Sun  ",,,,115.640697,-33.335784,,,
,WA,Dan Murphy's Stores,,,888 Nicholson Road,Canning Vale,6155,"9:00AM-9:00PM Mon-Sat, 10:00AM-7:00PM Sun  ",,,,115.918427,-32.090226,,,
,WA,Dan Murphy's Stores,,,1480 - 1490 Albany Highway ,Cannington,6107,"9:00AM-9:00PM Mon-Sat, 10:00AM-7:00PM Sun  ",,,,115.947081,-32.026466,,,
,WA,Dan Murphy's Stores,,,1244 Marmion Avenue ,Currambine,6028,"9:00AM-9:00PM Mon-Sat, 10:00AM-7:00PM Sun  ",,,,115.739129,-31.740963,,,
,WA,Dan Murphy's Stores,,,Cnr Bulwer and Fitzgerald Streets ,Hyde Park,6005,"9:00AM-9:00PM Mon-Sat, 10:00AM-7:00PM Sun  ",,,,115.857249,-31.938143,,,
,WA,Dan Murphy's Stores,,,2734 Albany Highway,Kelmscott,6111,"9:00AM-9:00PM Mon-Sat, 10:00AM-7:00PM Sun  ",,,,116.013986,-32.111436,,,
,WA,Dan Murphy's Stores,,,6 Challenger Ave ,Kwinana,6167,"9:00AM-9:00PM Mon-Sat, 10:00AM-7:00PM Sun  ",,,,115.816197,-32.24728,,,
,WA,Dan Murphy's Stores,,,Cnr Pinjarra Rd & Leslie Street ,Mandurah,6210,"9:00AM-9:00PM Mon-Sat, 10:00AM-6:00PM Sun  ",,,,115.721108,-32.534811,,,
,WA,Dan Murphy's Stores,,Midland Central Shopping Centre ,295 Great Eastern Highway,Midland,6056,"9:00AM-9:00PM Mon-Sat, 10:00AM-7:00PM Sun  ",,,,116.004166,-31.890439,,,
,WA,Dan Murphy's Stores,,Centro Galleria Shopping Centre ,266 Walter Road West,Morley,6062,"9:00AM-9:00PM Mon-Sat, 10:00AM-7:00PM Sun  ",,,,115.899173,-31.894975,,,
,WA,Dan Murphy's Stores,,,Cnr Warton Road & Holmes Street ,Southern River,6110,"9:00AM-9:00PM Mon-Sat, 10:00AM-7:00PM Sun  ",,,,115.943133,-32.08969,,,
